[{"OBJECT_NAME":"TEVEL2-9","OBJECT_ID":"2025-052AD","EPOCH":"2026-03-09T16:51:18.321696","MEAN_MOTION":15.28633834,"ECCENTRICITY":0.000799,"INCLINATION":97.4057,"RA_OF_ASC_NODE":324.3929,"ARG_OF_PERICENTER":124.2475,"MEAN_ANOMALY":235.9522,"EPHEMERIS_TYPE":0,"CLASSIFICATION_TYPE":"U","NORAD_CAT_ID":63237,"ELEMENT_SET_NO":999,"REV_AT_EPOCH":5481,"BSTAR":0.00067240159,"MEAN_MOTION_DOT":0.00018694,"MEAN_MOTION_DDOT":0},{"OBJECT_NAME":"STARLINK-34256","OBJECT_ID":"2025-119S","EPOCH":"2026-03-09T01:11:13.650720","MEAN_MOTION":15.2758916,"ECCENTRICITY":0.00021924,"INCLINATION":43.0035,"RA_OF_ASC_NODE":310.4731,"ARG_OF_PERICENTER":269.1692,"MEAN_ANOMALY":90.8908,"EPHEMERIS_TYPE":0,"CLASSIFICATION_TYPE":"U","NORAD_CAT_ID":64249,"ELEMENT_SET_NO":999,"REV_AT_EPOCH":4407,"BSTAR":0.0010672038,"MEAN_MOTION_DOT":0.0002923,"MEAN_MOTION_DDOT":0}]
